GLOBALSTAR M063 [+]     
1 26081U 00008A   23346.70754014 -.00000105  00000+0 -33478-3 0  9996
2 26081  51.9932 126.5743 0003843 348.4982 113.1818 11.86148613 92016
GLOBALSTAR M062 [-]     
1 26082U 00008B   23347.13995295 -.00000098  00000+0  19450-5 0  9999
2 26082  51.9857 279.1287 0007734  17.9063  86.0353 12.43422240 90444
GLOBALSTAR M060 [-]     
1 26083U 00008C   23346.78577528 -.00000135  00000+0 -44227-3 0  9996
2 26083  51.9987 162.0285 0004742  85.7920  18.5685 12.17621474 85070
GLOBALSTAR M064 [-]     
1 26084U 00008D   23346.85706637 -.00000046  00000+0  52650-3 0  9999
2 26084  52.0018 231.5251 0002635  72.2923 287.8197 11.88513312101421
GLOBALSTAR M065 [+]     
1 31571U 07020A   23346.64315980 -.00000094  00000+0  54176-4 0  9990
2 31571  51.9885 107.9567 0010490 160.7104 305.2213 12.61960472763643
GLOBALSTAR M069 [+]     
1 31573U 07020C   23346.52324519 -.00000091  00000+0  69306-4 0  9995
2 31573  51.9966  64.3917 0000621 149.9703 312.8985 12.62261893764754
GLOBALSTAR M072 [+]     
1 31574U 07020D   23346.68271362 -.00000111  00000+0 -40228-4 0  9996
2 31574  52.0064 159.6784 0001620 101.3996  24.6079 12.62269273763045
GLOBALSTAR M071 [P]     
1 31576U 07020F   23346.54974656 -.00000090  00000+0  77298-4 0  9991
2 31576  52.0078  69.3300 0000416 115.6844 347.1477 12.62273954425945
